{"type": "FeatureCollection", "features": [ {"type": "Feature", "properties": {"norad_id": 29795, "name": "FENGYUN 1C DEB", "group": "fengyun-1c-debris", "lat": -21.862099345803173, "lon": 118.31678214323333, "alt_km": 879.8103822823368, "timestamp": "2025-12-11T07:02:24.001558+00:00", "meta": {"OBJECT_NAME": "FENGYUN 1C DEB", "OBJECT_ID": "1999-025CM", "EPOCH": "2025-12-10T07:09:23.089824", "MEAN_MOTION": 13.92907551, "ECCENTRICITY": 0.0111028, "INCLINATION": 98.8702, "RA_OF_ASC_NODE": 113.7709, "ARG_OF_PERICENTER": 282.9558, "MEAN_ANOMALY": 106.5263, "EPHEMERIS_TYPE": 0, "CLASSIFICATION_TYPE": "U", "NORAD_CAT_ID": 29795, "ELEMENT_SET_NO": 999, "REV_AT_EPOCH": 96031, "BSTAR": 0.00034032, "MEAN_MOTION_DOT": 4.21e-06, "MEAN_MOTION_DDOT": 0}, "tle": {"line1": "1 29795U 99025CM  25344.29818391  .00000421  00000+0  34032-3 0  9997", "line2": "2 29795  98.8702 113.7709 0111028 282.9558 106.5263 13.92907551960312"}}, "geometry": {"type": "Point", "coordinates": [118.31678214323333, -21.862099345803173]}}, {"type": "Feature", "properties": {"norad_id": 29796, "name": "FENGYUN 1C DEB", "group": "fengyun-1c-debris", "lat": -38.56564243980566, "lon": -149.96641986239837, "alt_km": 835.1274836576549, "timestamp": "2025-12-11T07:02:24.001568+00:00", "meta": {"OBJECT_NAME": "FENGYUN 1C DEB", "OBJECT_ID": "1999-025CN", "EPOCH": "2025-12-10T22:20:45.432960", "MEAN_MOTION": 14.12329086, "ECCENTRICITY": 0.00518175, "INCLINATION": 98.8648, "RA_OF_ASC_NODE": 36.8233, "ARG_OF_PERICENTER": 273.0661, "MEAN_ANOMALY": 265.6276, "EPHEMERIS_TYPE": 0, "CLASSIFICATION_TYPE": "U", "NORAD_CAT_ID": 29796, "ELEMENT_SET_NO": 999, "REV_AT_EPOCH": 97035, "BSTAR": 0.00089356426, "MEAN_MOTION_DOT": 1.622e-05, "MEAN_MOTION_DDOT": 0}, "tle": {"line1": "1 29796U 99025CN  25344.93108140  .00001622  00000+0  89356-3 0  9996", "line2": "2 29796  98.8648  36.8233 0051817 273.0661 265.6276 14.12329086970354"}}, "geometry": {"type": "Point", "coordinates": [-149.96641986239837, -38.56564243980566]}}, {"type": "Feature", "properties": {"norad_id": 29798, "name": "FENGYUN 1C DEB", "group": "fengyun-1c-debris", "lat": -70.47089972121816, "lon": 76.67419552940578, "alt_km": 822.8983804875998, "timestamp": "2025-12-11T07:02:24.001578+00:00", "meta": {"OBJECT_NAME": "FENGYUN 1C DEB", "OBJECT_ID": "1999-025CQ", "EPOCH": "2025-12-10T15:00:35.279712", "MEAN_MOTION": 13.9955549, "ECCENTRICITY": 0.0111457, "INCLINATION": 99.2949, "RA_OF_ASC_NODE": 48.4982, "ARG_OF_PERICENTER": 278.2506, "MEAN_ANOMALY": 245.3466, "EPHEMERIS_TYPE": 0, "CLASSIFICATION_TYPE": "U", "NORAD_CAT_ID": 29798, "ELEMENT_SET_NO": 999, "REV_AT_EPOCH": 95895, "BSTAR": 0.0019658, "MEAN_MOTION_DOT": 2.98e-05, "MEAN_MOTION_DDOT": 0}, "tle": {"line1": "1 29798U 99025CQ  25344.62540833  .00002980  00000+0  19658-2 0  9998", "line2": "2 29798  99.2949  48.4982 0111457 278.2506 245.3466 13.99555490958959"}}, "geometry": {"type": "Point", "coordinates": [76.67419552940578, -70.47089972121816]}}, {"type": "Feature", "properties": {"norad_id": 29800, "name": "FENGYUN 1C DEB", "group": "fengyun-1c-debris", "lat": 77.84627366879592, "lon": -130.3533782403491, "alt_km": 956.4251088517012, "timestamp": "2025-12-11T07:02:24.001588+00:00", "meta": {"OBJECT_NAME": "FENGYUN 1C DEB", "OBJECT_ID": "1999-025CS", "EPOCH": "2025-12-09T23:47:57.963840", "MEAN_MOTION": 13.9854041, "ECCENTRICITY": 0.0133665, "INCLINATION": 98.2893, "RA_OF_ASC_NODE": 5.8653, "ARG_OF_PERICENTER": 234.9829, "MEAN_ANOMALY": 155.015, "EPHEMERIS_TYPE": 0, "CLASSIFICATION_TYPE": "U", "NORAD_CAT_ID": 29800, "ELEMENT_SET_NO": 999, "REV_AT_EPOCH": 95538, "BSTAR": 0.0024712579, "MEAN_MOTION_DOT": 3.785e-05, "MEAN_MOTION_DDOT": 0}, "tle": {"line1": "1 29800U 99025CS  25343.99164310  .00003785  00000+0  24713-2 0  9995", "line2": "2 29800  98.2893   5.8653 0133665 234.9829 155.0150 13.98540410955380"}}, "geometry": {"type": "Point", "coordinates": [-130.3533782403491, 77.84627366879592]}}, {"type": "Feature", "properties": {"norad_id": 29801, "name": "FENGYUN 1C DEB", "group": "fengyun-1c-debris", "lat": -9.360211138585527, "lon": 64.82493976260913, "alt_km": 765.6394994360517, "timestamp": "2025-12-11T07:02:24.001598+00:00", "meta": {"OBJECT_NAME": "FENGYUN 1C DEB", "OBJECT_ID": "1999-025CT", "EPOCH": "2025-12-10T23:46:13.257408", "MEAN_MOTION": 14.35893509, "ECCENTRICITY": 0.01028589, "INCLINATION": 98.7948, "RA_OF_ASC_NODE": 245.9783, "ARG_OF_PERICENTER": 272.603, "MEAN_ANOMALY": 153.0441, "EPHEMERIS_TYPE": 0, "CLASSIFICATION_TYPE": "U", "NORAD_CAT_ID": 29801, "ELEMENT_SET_NO": 999, "REV_AT_EPOCH": 98916, "BSTAR": 0.00030058278, "MEAN_MOTION_DOT": 8.77e-06, "MEAN_MOTION_DDOT": 0}, "tle": {"line1": "1 29801U 99025CT  25344.99043122  .00000877  00000+0  30058-3 0  9993", "line2": "2 29801  98.7948 245.9783 0102858 272.6030 153.0441 14.35893509989167"}}, "geometry": {"type": "Point", "coordinates": [64.82493976260913, -9.360211138585527]}}, {"type": "Feature", "properties": {"norad_id": 29802, "name": "FENGYUN 1C DEB", "group": "fengyun-1c-debris", "lat": 35.34806982111719, "lon": 88.16886698877155, "alt_km": 667.4925938718852, "timestamp": "2025-12-11T07:02:24.001608+00:00", "meta": {"OBJECT_NAME": "FENGYUN 1C DEB", "OBJECT_ID": "1999-025CU", "EPOCH": "2025-12-10T06:22:46.079040", "MEAN_MOTION": 14.62208742, "ECCENTRICITY": 0.0037015, "INCLINATION": 98.6191, "RA_OF_ASC_NODE": 93.2735, "ARG_OF_PERICENTER": 346.6987, "MEAN_ANOMALY": 43.1368, "EPHEMERIS_TYPE": 0, "CLASSIFICATION_TYPE": "U", "NORAD_CAT_ID": 29802, "ELEMENT_SET_NO": 999, "REV_AT_EPOCH": 98437, "BSTAR": 0.0044103, "MEAN_MOTION_DOT": 0.00022449, "MEAN_MOTION_DDOT": 0}, "tle": {"line1": "1 29802U 99025CU  25344.26581110  .00022449  00000+0  44103-2 0  9992", "line2": "2 29802  98.6191  93.2735 0037015 346.6987  43.1368 14.62208742984377"}}, "geometry": {"type": "Point", "coordinates": [88.16886698877155, 35.34806982111719]}}, {"type": "Feature", "properties": {"norad_id": 29804, "name": "FENGYUN 1C DEB", "group": "fengyun-1c-debris", "lat": -51.89831271433771, "lon": 4.947120081421413, "alt_km": 815.1784986664697, "timestamp": "2025-12-11T07:02:24.001618+00:00", "meta": {"OBJECT_NAME": "FENGYUN 1C DEB", "OBJECT_ID": "1999-025CW", "EPOCH": "2025-12-10T11:32:16.877760", "MEAN_MOTION": 14.04321297, "ECCENTRICITY": 0.00972846, "INCLINATION": 98.8054, "RA_OF_ASC_NODE": 352.7586, "ARG_OF_PERICENTER": 308.2089, "MEAN_ANOMALY": 213.2792, "EPHEMERIS_TYPE": 0, "CLASSIFICATION_TYPE": "U", "NORAD_CAT_ID": 29804, "ELEMENT_SET_NO": 999, "REV_AT_EPOCH": 96862, "BSTAR": 0.0002240927, "MEAN_MOTION_DOT": 3.28e-06, "MEAN_MOTION_DDOT": 0}, "tle": {"line1": "1 29804U 99025CW  25344.48075090  .00000328  00000+0  22409-3 0  9991", "line2": "2 29804  98.8054 352.7586 0097284 308.2089 213.2792 14.04321297968625"}}, "geometry": {"type": "Point", "coordinates": [4.947120081421413, -51.89831271433771]}}, {"type": "Feature", "properties": {"norad_id": 29805, "name": "FENGYUN 1C DEB", "group": "fengyun-1c-debris", "lat": -79.45367714790846, "lon": 100.10343796905177, "alt_km": 891.938113603781, "timestamp": "2025-12-11T07:02:24.001628+00:00", "meta": {"OBJECT_NAME": "FENGYUN 1C DEB", "OBJECT_ID": "1999-025CX", "EPOCH": "2025-12-10T20:57:25.850304", "MEAN_MOTION": 13.72656035, "ECCENTRICITY": 0.01879442, "INCLINATION": 99.4554, "RA_OF_ASC_NODE": 36.1686, "ARG_OF_PERICENTER": 234.6391, "MEAN_ANOMALY": 123.7068, "EPHEMERIS_TYPE": 0, "CLASSIFICATION_TYPE": "U", "NORAD_CAT_ID": 29805, "ELEMENT_SET_NO": 999, "REV_AT_EPOCH": 94677, "BSTAR": 0.00023905173, "MEAN_MOTION_DOT": 2.04e-06, "MEAN_MOTION_DDOT": 0}, "tle": {"line1": "1 29805U 99025CX  25344.87321586  .00000204  00000+0  23905-3 0  9994", "line2": "2 29805  99.4554  36.1686 0187944 234.6391 123.7068 13.72656035946771"}}, "geometry": {"type": "Point", "coordinates": [100.10343796905177, -79.45367714790846]}}, {"type": "Feature", "properties": {"norad_id": 29806, "name": "FENGYUN 1C DEB", "group": "fengyun-1c-debris", "lat": -79.6574342786862, "lon": 58.29313184858218, "alt_km": 841.0535626619985, "timestamp": "2025-12-11T07:02:24.001638+00:00", "meta": {"OBJECT_NAME": "FENGYUN 1C DEB", "OBJECT_ID": "1999-025CY", "EPOCH": "2025-12-10T07:42:14.590080", "MEAN_MOTION": 14.11999204, "ECCENTRICITY": 0.0027547, "INCLINATION": 98.7129, "RA_OF_ASC_NODE": 0.1793, "ARG_OF_PERICENTER": 258.9805, "MEAN_ANOMALY": 116.7213, "EPHEMERIS_TYPE": 0, "CLASSIFICATION_TYPE": "U", "NORAD_CAT_ID": 29806, "ELEMENT_SET_NO": 999, "REV_AT_EPOCH": 97105, "BSTAR": 0.00078744, "MEAN_MOTION_DOT": 1.403e-05, "MEAN_MOTION_DDOT": 0}, "tle": {"line1": "1 29806U 99025CY  25344.32100220  .00001403  00000+0  78744-3 0  9998", "line2": "2 29806  98.7129   0.1793 0027547 258.9805 116.7213 14.11999204971058"}}, "geometry": {"type": "Point", "coordinates": [58.29313184858218, -79.6574342786862]}}, {"type": "Feature", "properties": {"norad_id": 29807, "name": "FENGYUN 1C DEB", "group": "fengyun-1c-debris", "lat": -3.281420984229534, "lon": -9.537323339078824, "alt_km": 813.3064403187054, "timestamp": "2025-12-11T07:02:24.001648+00:00", "meta": {"OBJECT_NAME": "FENGYUN 1C DEB", "OBJECT_ID": "1999-025CZ", "EPOCH": "2025-12-10T12:18:14.121216", "MEAN_MOTION": 14.08654616, "ECCENTRICITY": 0.00796039, "INCLINATION": 98.7549, "RA_OF_ASC_NODE": 349.1985, "ARG_OF_PERICENTER": 338.2719, "MEAN_ANOMALY": 21.508, "EPHEMERIS_TYPE": 0, "CLASSIFICATION_TYPE": "U", "NORAD_CAT_ID": 29807, "ELEMENT_SET_NO": 999, "REV_AT_EPOCH": 97063, "BSTAR": 0.00045587332, "MEAN_MOTION_DOT": 7.64e-06, "MEAN_MOTION_DDOT": 0}, "tle": {"line1": "1 29807U 99025CZ  25344.51266344  .00000764  00000+0  45587-3 0  9998", "line2": "2 29807  98.7549 349.1985 0079603 338.2719  21.5080 14.08654616970639"}}, "geometry": {"type": "Point", "coordinates": [-9.537323339078824, -3.281420984229534]}}]}